{
  "norad_id": 59467,
  "name": "STARLINK-31592",
  "history": [
    {
      "epoch": "2026-04-15T12:40:37.412256Z",
      "apogee_km": 484.07951136405245,
      "perigee_km": 482.06423709351384,
      "latitude_deg": 3.0687087762940984e-05,
      "longitude_deg": 152.8938639421727,
      "height_km": 482.7980721408463,
      "semi_major_axis_km": 6861.208874228782,
      "eccentricity": 0.00014686,
      "inclination_deg": 43.0028,
      "raan_deg": 186.7387,
      "arg_perigee_deg": 272.8941,
      "mean_anomaly_deg": 87.1743,
      "mean_motion_rev_day": 15.27572393
    },
    {
      "epoch": "2026-04-16T12:12:56.049120Z",
      "apogee_km": 483.9943866630738,
      "perigee_km": 482.00465707173225,
      "latitude_deg": 1.7086984390914688e-05,
      "longitude_deg": 153.3114054818879,
      "height_km": 482.8331973438537,
      "semi_major_axis_km": 6861.136521867403,
      "eccentricity": 0.000145,
      "inclination_deg": 43.0016,
      "raan_deg": 181.2006,
      "arg_perigee_deg": 266.7289,
      "mean_anomaly_deg": 93.3397,
      "mean_motion_rev_day": 15.27596556
    },
    {
      "epoch": "2026-04-17T21:10:15.086784Z",
      "apogee_km": 484.04873892051364,
      "perigee_km": 482.0820438670444,
      "latitude_deg": 1.9313670512921732e-05,
      "longitude_deg": 9.872860609172383,
      "height_km": 482.7794346698683,
      "semi_major_axis_km": 6861.202391393778,
      "eccentricity": 0.00014332,
      "inclination_deg": 43.0021,
      "raan_deg": 173.4448,
      "arg_perigee_deg": 273.6689,
      "mean_anomaly_deg": 86.3999,
      "mean_motion_rev_day": 15.27574558
    },
    {
      "epoch": "2026-04-18T20:42:34.827840Z",
      "apogee_km": 483.9194075166115,
      "perigee_km": 482.1217842264923,
      "latitude_deg": -1.0159986011945307e-05,
      "longitude_deg": 10.285770046395426,
      "height_km": 482.7135284548194,
      "semi_major_axis_km": 6861.157595871551,
      "eccentricity": 0.000131,
      "inclination_deg": 43.0016,
      "raan_deg": 167.9067,
      "arg_perigee_deg": 275.3548,
      "mean_anomaly_deg": 84.7154,
      "mean_motion_rev_day": 15.27589518
    },
    {
      "epoch": "2026-04-19T20:14:56.290848Z",
      "apogee_km": 483.93649447093685,
      "perigee_km": 482.21981843879166,
      "latitude_deg": 3.500897400905388e-05,
      "longitude_deg": 10.689863443883391,
      "height_km": 482.6248566366244,
      "semi_major_axis_km": 6861.215156454864,
      "eccentricity": 0.0001251,
      "inclination_deg": 43.0029,
      "raan_deg": 162.3669,
      "arg_perigee_deg": 285.5561,
      "mean_anomaly_deg": 74.5153,
      "mean_motion_rev_day": 15.27570295
    },
    {
      "epoch": "2026-04-20T10:22:21.495072Z",
      "apogee_km": 483.8622982793195,
      "perigee_km": 482.30191982953875,
      "latitude_deg": 1.9865486027605593e-05,
      "longitude_deg": 154.93209011708538,
      "height_km": 482.743954250019,
      "semi_major_axis_km": 6861.219109054429,
      "eccentricity": 0.00011371,
      "inclination_deg": 43.0016,
      "raan_deg": 159.0442,
      "arg_perigee_deg": 278.4627,
      "mean_anomaly_deg": 81.6096,
      "mean_motion_rev_day": 15.27568975
    },
    {
      "epoch": "2026-04-21T19:19:37.392960Z",
      "apogee_km": 483.78961576752135,
      "perigee_km": 482.1264863271481,
      "latitude_deg": 1.867077319143813e-05,
      "longitude_deg": 11.507954502274872,
      "height_km": 482.7246950300495,
      "semi_major_axis_km": 6861.095051047335,
      "eccentricity": 0.0001212,
      "inclination_deg": 42.9999,
      "raan_deg": 151.2897,
      "arg_perigee_deg": 270.6811,
      "mean_anomaly_deg": 89.3902,
      "mean_motion_rev_day": 15.27610406
    },
    {
      "epoch": "2026-04-22T18:51:58.474944Z",
      "apogee_km": 483.8953498529545,
      "perigee_km": 482.14026645302874,
      "latitude_deg": -2.2459569586172352e-05,
      "longitude_deg": 11.913746459289094,
      "height_km": 482.60821229916013,
      "semi_major_axis_km": 6861.154808152991,
      "eccentricity": 0.0001279,
      "inclination_deg": 42.9995,
      "raan_deg": 145.7501,
      "arg_perigee_deg": 282.2466,
      "mean_anomaly_deg": 77.8242,
      "mean_motion_rev_day": 15.27590449
    },
    {
      "epoch": "2026-04-23T08:59:22.641504Z",
      "apogee_km": 484.76470809780494,
      "perigee_km": 481.32121909767557,
      "latitude_deg": -1.0244215285691872e-05,
      "longitude_deg": 156.15763771355563,
      "height_km": 482.7944108699499,
      "semi_major_axis_km": 6861.17996359774,
      "eccentricity": 0.00025094,
      "inclination_deg": 43.005,
      "raan_deg": 142.4247,
      "arg_perigee_deg": 270.8869,
      "mean_anomaly_deg": 89.1695,
      "mean_motion_rev_day": 15.27582048
    },
    {
      "epoch": "2026-04-24T08:31:44.637600Z",
      "apogee_km": 484.40188802861667,
      "perigee_km": 481.71229994377336,
      "latitude_deg": -8.914157604193778e-06,
      "longitude_deg": 156.56015671149194,
      "height_km": 482.4538392296056,
      "semi_major_axis_km": 6861.194093986194,
      "eccentricity": 0.000196,
      "inclination_deg": 43.0016,
      "raan_deg": 136.8856,
      "arg_perigee_deg": 286.4391,
      "mean_anomaly_deg": 73.6245,
      "mean_motion_rev_day": 15.27577329
    },
    {
      "epoch": "2026-04-25T17:29:01.504032Z",
      "apogee_km": 483.8777351612225,
      "perigee_km": 482.25986283381826,
      "latitude_deg": -9.087759198181775e-06,
      "longitude_deg": 13.132778275561948,
      "height_km": 482.76563938798216,
      "semi_major_axis_km": 6861.20579899752,
      "eccentricity": 0.0001179,
      "inclination_deg": 43.0001,
      "raan_deg": 129.1319,
      "arg_perigee_deg": 275.6538,
      "mean_anomaly_deg": 84.4179,
      "mean_motion_rev_day": 15.2757342
    },
    {
      "epoch": "2026-04-26T17:01:22.440000Z",
      "apogee_km": 483.92896361569274,
      "perigee_km": 482.1928061029075,
      "latitude_deg": 6.508406623561911e-05,
      "longitude_deg": 13.54020605939874,
      "height_km": 482.714697405004,
      "semi_major_axis_km": 6861.1978848593,
      "eccentricity": 0.00012652,
      "inclination_deg": 43.0003,
      "raan_deg": 123.5932,
      "arg_perigee_deg": 278.1331,
      "mean_anomaly_deg": 81.9378,
      "mean_motion_rev_day": 15.27576063
    },
    {
      "epoch": "2026-04-27T07:08:48.198048Z",
      "apogee_km": 484.40707335419575,
      "perigee_km": 481.78745411230193,
      "latitude_deg": -3.5238534590565463e-06,
      "longitude_deg": 157.7806633549247,
      "height_km": 482.82271903826376,
      "semi_major_axis_km": 6861.234263733249,
      "eccentricity": 0.0001909,
      "inclination_deg": 43.0034,
      "raan_deg": 120.2711,
      "arg_perigee_deg": 272.2769,
      "mean_anomaly_deg": 87.7864,
      "mean_motion_rev_day": 15.27563914
    },
    {
      "epoch": "2026-04-28T16:06:04.108032Z",
      "apogee_km": 484.30715419165244,
      "perigee_km": 481.7849832955826,
      "latitude_deg": -3.554590911499385e-05,
      "longitude_deg": 14.355948741281937,
      "height_km": 482.7310340234856,
      "semi_major_axis_km": 6861.183068743617,
      "eccentricity": 0.0001838,
      "inclination_deg": 42.9998,
      "raan_deg": 112.5161,
      "arg_perigee_deg": 274.1871,
      "mean_anomaly_deg": 85.877,
      "mean_motion_rev_day": 15.27581011
    },
    {
      "epoch": "2026-04-29T07:47:36.744576Z",
      "apogee_km": 484.26815244827867,
      "perigee_km": 481.7797465951062,
      "latitude_deg": 1.0746154658561155e-05,
      "longitude_deg": 134.63224889655692,
      "height_km": 482.6259999830482,
      "semi_major_axis_km": 6861.160949521693,
      "eccentricity": 0.00018134,
      "inclination_deg": 43.0007,
      "raan_deg": 108.8228,
      "arg_perigee_deg": 278.0888,
      "mean_anomaly_deg": 81.9758,
      "mean_motion_rev_day": 15.27588398
    },
    {
      "epoch": "2026-04-30T15:10:45.853824Z",
      "apogee_km": 484.7845866009384,
      "perigee_km": 481.3067903198107,
      "latitude_deg": 2.4602532724736776e-05,
      "longitude_deg": 15.167836728788627,
      "height_km": 482.5964108252,
      "semi_major_axis_km": 6861.182688460374,
      "eccentricity": 0.00025344,
      "inclination_deg": 43.0014,
      "raan_deg": 101.4353,
      "arg_perigee_deg": 277.501,
      "mean_anomaly_deg": 82.5554,
      "mean_motion_rev_day": 15.27581138
    },
    {
      "epoch": "2026-05-02T04:50:30.978816Z",
      "apogee_km": 484.3702407336832,
      "perigee_km": 481.75337950750327,
      "latitude_deg": 3.0199308537225462e-05,
      "longitude_deg": 159.82387459127528,
      "height_km": 482.6418907740099,
      "semi_major_axis_km": 6861.1988101205925,
      "eccentricity": 0.0001907,
      "inclination_deg": 43.002,
      "raan_deg": 92.5761,
      "arg_perigee_deg": 278.6708,
      "mean_anomaly_deg": 81.3928,
      "mean_motion_rev_day": 15.27575754
    },
    {
      "epoch": "2026-05-03T13:47:49.466976Z",
      "apogee_km": 483.7525266704588,
      "perigee_km": 482.4173328829247,
      "latitude_deg": 5.845292848237742e-05,
      "longitude_deg": 16.388147889594556,
      "height_km": 482.4385826406996,
      "semi_major_axis_km": 6861.2219297766915,
      "eccentricity": 9.73e-05,
      "inclination_deg": 42.9989,
      "raan_deg": 84.8208,
      "arg_perigee_deg": 309.2527,
      "mean_anomaly_deg": 50.8239,
      "mean_motion_rev_day": 15.27568033
    },
    {
      "epoch": "2026-05-04T21:10:57.832320Z",
      "apogee_km": 484.6033950112542,
      "perigee_km": 481.58856923890835,
      "latitude_deg": 2.8165968508099785e-05,
      "longitude_deg": -103.07190758059971,
      "height_km": 482.65119746985994,
      "semi_major_axis_km": 6861.232982125081,
      "eccentricity": 0.0002197,
      "inclination_deg": 43.0027,
      "raan_deg": 77.4346,
      "arg_perigee_deg": 278.4849,
      "mean_anomaly_deg": 81.5754,
      "mean_motion_rev_day": 15.27564342
    }
  ]
}